QIANFAN-81              
1 63167U 25046J   26013.85445932  .00000166  00000+0  23818-3 0  9999
2 63167  88.9791 316.5525 0016286  32.9518 327.2645 13.51015347 51820
QIANFAN-82              
1 63168U 25046K   26013.88915677  .00000165  00000+0  23729-3 0  9991
2 63168  88.9791 316.5929 0014577  40.4834 319.7399 13.50988373 51813
QIANFAN-83              
1 63169U 25046L   26013.87723733  .00000186  00000+0  22484-3 0  9991
2 63169  88.9791 316.3075 0015491  25.5574 334.6346 13.61990402 51978
QIANFAN-84              
1 63170U 25046M   26013.84264887  .00000163  00000+0  23297-3 0  9998
2 63170  88.9790 316.7302 0017472  36.6292 323.6050 13.50998164 51732
QIANFAN-85              
1 63171U 25046N   26013.83964506  .00000159  00000+0  22707-3 0  9993
2 63171  88.9790 316.6022 0014919  39.4227 320.8007 13.50987214 51806
QIANFAN-86              
1 63172U 25046P   26013.84797233  .00000166  00000+0  23790-3 0  9997
2 63172  88.9793 316.4643 0012874  43.8840 316.3331 13.50989093 51880
QIANFAN-87              
1 63173U 25046Q   26013.89341848  .00000164  00000+0  23576-3 0  9990
2 63173  88.9789 316.5700 0013434  39.4919 320.7209 13.50986743 51828
QIANFAN-88              
1 63174U 25046R   26013.83553506  .00000167  00000+0  24009-3 0  9996
2 63174  88.9791 316.5313 0013977  46.4238 313.8071 13.50992936 51849
